[{"OBJECT_NAME":"STARLINK-30124","OBJECT_ID":"2023-067C","EPOCH":"2026-03-09T22:37:13.872288","MEAN_MOTION":15.02519013,"ECCENTRICITY":0.00012533,"INCLINATION":43.0033,"RA_OF_ASC_NODE":273.4513,"ARG_OF_PERICENTER":267.9842,"MEAN_ANOMALY":92.0857,"EPHEMERIS_TYPE":0,"CLASSIFICATION_TYPE":"U","NORAD_CAT_ID":56690,"ELEMENT_SET_NO":999,"REV_AT_EPOCH":15569,"BSTAR":9.0782528e-5,"MEAN_MOTION_DOT":1.022e-5,"MEAN_MOTION_DDOT":0},{"OBJECT_NAME":"OBJECT D","OBJECT_ID":"2024-018D","EPOCH":"2026-03-09T19:55:21.548928","MEAN_MOTION":14.55118189,"ECCENTRICITY":0.03718814,"INCLINATION":58.6682,"RA_OF_ASC_NODE":179.3794,"ARG_OF_PERICENTER":4.8806,"MEAN_ANOMALY":355.5692,"EPHEMERIS_TYPE":0,"CLASSIFICATION_TYPE":"U","NORAD_CAT_ID":58852,"ELEMENT_SET_NO":999,"REV_AT_EPOCH":11155,"BSTAR":0.00065583894,"MEAN_MOTION_DOT":7.104e-5,"MEAN_MOTION_DDOT":0}]
